OBJECT_NAME,OBJECT_ID,EPOCH,MEAN_MOTION,ECCENTRICITY,INCLINATION,RA_OF_ASC_NODE,ARG_OF_PERICENTER,MEAN_ANOMALY,EPHEMERIS_TYPE,CLASSIFICATION_TYPE,NORAD_CAT_ID,ELEMENT_SET_NO,REV_AT_EPOCH,BSTAR,MEAN_MOTION_DOT,MEAN_MOTION_DDOT
STARLINK-36837,2026-034J,2026-06-27T08:13:14.642976,15.34396608,.0000986,53.1601,52.1252,84.0401,276.0713,0,U,67858,999,2086,.93599E-3,.31376E-3,0
STARLINK-36393,2026-034K,2026-06-27T09:04:35.013792,15.31713521,.0001055,53.1596,53.7440,85.9015,274.2107,0,U,67859,999,2084,.67838E-3,.20753E-3,0
STARLINK-35873,2026-034L,2026-06-27T05:39:17.171424,15.30191005,.0001029,53.1584,55.7020,83.5280,276.5837,0,U,67860,999,2083,.89326E-3,.26182E-3,0
STARLINK-36325,2026-034M,2026-06-27T08:42:50.380704,15.30183828,.0001304,53.1584,55.0763,87.4896,272.6254,0,U,67861,999,2082,.61029E-3,.1775E-3,0
STARLINK-36332,2026-034N,2026-06-27T08:38:16.683648,15.30190479,.0001316,53.1593,55.0563,107.9677,252.1467,0,U,67862,999,2082,.61014E-3,.17749E-3,0
STARLINK-36835,2026-034P,2026-06-26T23:09:23.840064,15.30173170,.0001174,53.1588,56.8553,92.7418,267.3717,0,U,67863,999,2076,.73052E-3,.21321E-3,0
STARLINK-36831,2026-034Q,2026-06-27T08:29:06.757152,15.30253509,.0001071,53.1588,55.0117,79.1077,281.0044,0,U,67864,999,2082,.13429E-2,.39693E-3,0
STARLINK-36738,2026-034R,2026-06-27T03:37:52.701888,15.30196994,.00010411,53.1581,55.8835,102.0309,258.0808,0,U,67865,999,2079,.1070406E-2,.31475E-3,0
STARLINK-36780,2026-034S,2026-06-26T22:51:09.525312,15.30178422,.0000941,53.1584,56.7721,90.7838,269.3271,0,U,67866,999,2076,.98205E-3,.2882E-3,0
STARLINK-36761,2026-034T,2026-06-26T22:46:35.933664,15.30192805,.0001201,53.1601,56.7512,95.6310,264.4828,0,U,67867,999,2076,.60203E-3,.17509E-3,0
STARLINK-36762,2026-034U,2026-06-26T22:40:31.302336,15.30189799,.0000953,53.1594,56.7268,87.7928,272.3182,0,U,67868,999,2076,.78489E-3,.22952E-3,0
STARLINK-36779,2026-034V,2026-06-27T08:19:18.247008,15.34383501,.0001212,53.1586,52.1348,84.9352,275.1789,0,U,67869,999,2085,.69416E-3,.23137E-3,0
STARLINK-36770,2026-034W,2026-06-27T09:28:15.852288,15.30191921,.000113,53.1601,54.5558,81.5253,278.5876,0,U,67870,999,2083,.66194E-3,.19292E-3,0
STARLINK-36769,2026-034X,2026-06-27T09:25:13.264032,15.30193348,.0001094,53.1600,54.5374,89.1753,270.9373,0,U,67871,999,2083,.72459E-3,.21158E-3,0
STARLINK-36786,2026-034Y,2026-06-27T08:31:07.383648,15.31707886,.0000846,53.1573,54.3083,62.9176,297.1912,0,U,67872,999,2083,.63703E-3,.19459E-3,0
STARLINK-36783,2026-034Z,2026-06-27T02:01:05.118528,15.34379161,.00009642,53.1591,53.3369,85.5923,274.5190,0,U,67873,999,2082,.8407201E-3,.28117E-3,0
STARLINK-36730,2026-034AA,2026-06-26T22:47:26.104416,15.34364065,.0001198,53.1597,53.9194,93.3266,266.7873,0,U,67874,999,2080,.70341E-3,.23437E-3,0
STARLINK-36727,2026-034AB,2026-06-27T09:18:02.369088,15.31703462,.0001075,53.1596,53.7982,72.9464,287.1655,0,U,67875,999,2084,.80473E-3,.24692E-3,0
STARLINK-36743,2026-034AC,2026-06-27T08:41:19.105152,15.30186882,.0001441,53.1609,55.0625,79.2051,280.9112,0,U,67876,999,2082,.66402E-3,.19351E-3,0
STARLINK-36784,2026-034AD,2026-06-27T09:29:18.426624,15.29356460,.0000833,53.1598,55.2890,62.7289,297.3796,0,U,67877,999,2082,.15327E-2,.44135E-3,0
STARLINK-36689,2026-034AE,2026-06-27T08:27:38.275776,15.30194810,.0001054,53.1589,55.0043,97.2441,262.8679,0,U,67878,999,2082,.68547E-3,.19994E-3,0
STARLINK-36818,2026-035A,2026-06-27T07:32:47.664384,15.33446074,.0001398,97.2839,111.2982,95.2959,264.8444,0,U,67879,999,2078,.85516E-3,.27635E-3,0
STARLINK-36821,2026-035B,2026-06-27T09:02:51.052128,15.33437287,.0001952,97.2832,111.3674,102.5725,257.5736,0,U,67880,999,2079,.46352E-3,.14915E-3,0
STARLINK-36808,2026-035C,2026-06-27T12:42:06.253056,15.33447831,.0001576,97.2834,111.6235,98.5138,261.6283,0,U,67881,999,2082,.66574E-3,.21481E-3,0
STARLINK-36817,2026-035D,2026-06-27T08:27:36.427680,15.33438981,.0002864,97.2832,111.4030,86.9667,273.1903,0,U,67882,999,2079,.73826E-3,.23832E-3,0
STARLINK-36856,2026-035E,2026-06-27T08:31:31.719936,15.33440094,.0002002,97.2842,111.3988,96.1605,263.9866,0,U,67883,999,2079,.74639E-3,.24095E-3,0
STARLINK-36842,2026-035F,2026-06-27T08:58:56.044128,15.33444312,.0001517,97.2838,111.3702,87.8980,272.2437,0,U,67884,999,2079,.79417E-3,.25651E-3,0
STARLINK-36826,2026-035G,2026-06-27T08:43:15.797856,15.33466623,.0001631,97.2840,111.3852,81.2161,278.9266,0,U,67885,999,2079,.11015E-2,.35679E-3,0
STARLINK-36390,2026-035H,2026-06-27T08:55:02.118720,15.33459194,.0001725,97.2830,111.3747,90.1710,269.9731,0,U,67886,999,2079,.12258E-2,.39727E-3,0
STARLINK-36368,2026-035J,2026-06-27T08:11:57.016032,15.33439177,.0001591,97.2836,111.4182,108.1147,252.0269,0,U,67887,999,2079,.76313E-3,.24638E-3,0
