STARLINK-36837          
1 67858U 26034J   26178.34253059  .00031376  00000+0  93599-3 0  9991
2 67858  53.1601  52.1252 0000986  84.0401 276.0713 15.34396608 20866
STARLINK-36393          
1 67859U 26034K   26178.37818303  .00020753  00000+0  67838-3 0  9998
2 67859  53.1596  53.7440 0001055  85.9015 274.2107 15.31713521 20844
STARLINK-35873          
1 67860U 26034L   26178.23561541  .00026182  00000+0  89326-3 0  9992
2 67860  53.1584  55.7020 0001029  83.5280 276.5837 15.30191005 20838
STARLINK-36325          
1 67861U 26034M   26178.36308311  .00017750  00000+0  61029-3 0  9992
2 67861  53.1584  55.0763 0001304  87.4896 272.6254 15.30183828 20821
STARLINK-36332          
1 67862U 26034N   26178.35991532  .00017749  00000+0  61014-3 0  9997
2 67862  53.1593  55.0563 0001316 107.9677 252.1467 15.30190479 20827
STARLINK-36835          
1 67863U 26034P   26177.96485926  .00021321  00000+0  73052-3 0  9995
2 67863  53.1588  56.8553 0001174  92.7418 267.3717 15.30173170 20764
STARLINK-36831          
1 67864U 26034Q   26178.35355043  .00039693  00000+0  13429-2 0  9998
2 67864  53.1588  55.0117 0001071  79.1077 281.0044 15.30253509 20826
STARLINK-36738          
1 67865U 26034R   26178.15130442  .00031475  00000+0  10704-2 0  9994
2 67865  53.1581  55.8835 0001041 102.0309 258.0808 15.30196994 20798
STARLINK-36780          
1 67866U 26034S   26177.95219358  .00028820  00000+0  98205-3 0  9999
2 67866  53.1584  56.7721 0000941  90.7838 269.3271 15.30178422 20766
STARLINK-36761          
1 67867U 26034T   26177.94902701  .00017509  00000+0  60203-3 0  9999
2 67867  53.1601  56.7512 0001201  95.6310 264.4828 15.30192805 20769
STARLINK-36762          
1 67868U 26034U   26177.94480674  .00022952  00000+0  78489-3 0  9993
2 67868  53.1594  56.7268 0000953  87.7928 272.3182 15.30189799 20768
STARLINK-36779          
1 67869U 26034V   26178.34673897  .00023137  00000+0  69416-3 0  9996
2 67869  53.1586  52.1348 0001212  84.9352 275.1789 15.34383501 20853
STARLINK-36770          
1 67870U 26034W   26178.39462792  .00019292  00000+0  66194-3 0  9990
2 67870  53.1601  54.5558 0001130  81.5253 278.5876 15.30191921 20835
STARLINK-36769          
1 67871U 26034X   26178.39251463  .00021158  00000+0  72459-3 0  9997
2 67871  53.1600  54.5374 0001094  89.1753 270.9373 15.30193348 20832
STARLINK-36786          
1 67872U 26034Y   26178.35494657  .00019459  00000+0  63703-3 0  9991
2 67872  53.1573  54.3083 0000846  62.9176 297.1912 15.31707886 20838
STARLINK-36783          
1 67873U 26034Z   26178.08408702  .00028117  00000+0  84072-3 0  9991
2 67873  53.1591  53.3369 0000964  85.5923 274.5190 15.34379161 20827
STARLINK-36730          
1 67874U 26034AA  26177.94960769  .00023437  00000+0  70341-3 0  9996
2 67874  53.1597  53.9194 0001198  93.3266 266.7873 15.34364065 20809
STARLINK-36727          
1 67875U 26034AB  26178.38752742  .00024692  00000+0  80473-3 0  9997
2 67875  53.1596  53.7982 0001075  72.9464 287.1655 15.31703462 20843
STARLINK-36743          
1 67876U 26034AC  26178.36202668  .00019351  00000+0  66402-3 0  9995
2 67876  53.1609  55.0625 0001441  79.2051 280.9112 15.30186882 20824
STARLINK-36784          
1 67877U 26034AD  26178.39535216  .00044135  00000+0  15327-2 0  9994
2 67877  53.1598  55.2890 0000833  62.7289 297.3796 15.29356460 20821
STARLINK-36689          
1 67878U 26034AE  26178.35252634  .00019994  00000+0  68547-3 0  9999
2 67878  53.1589  55.0043 0001054  97.2441 262.8679 15.30194810 20827
STARLINK-36818          
1 67879U 26035A   26178.31444056  .00027635  00000+0  85516-3 0  9994
2 67879  97.2839 111.2982 0001398  95.2959 264.8444 15.33446074 20787
STARLINK-36821          
1 67880U 26035B   26178.37697977  .00014915  00000+0  46352-3 0  9996
2 67880  97.2832 111.3674 0001952 102.5725 257.5736 15.33437287 20790
STARLINK-36808          
1 67881U 26035C   26178.52923904  .00021481  00000+0  66574-3 0  9990
2 67881  97.2834 111.6235 0001576  98.5138 261.6283 15.33447831 20826
STARLINK-36817          
1 67882U 26035D   26178.35250495  .00023832  00000+0  73826-3 0  9990
2 67882  97.2832 111.4030 0002864  86.9667 273.1903 15.33438981 20794
STARLINK-36856          
1 67883U 26035E   26178.35522824  .00024095  00000+0  74639-3 0  9994
2 67883  97.2842 111.3988 0002002  96.1605 263.9866 15.33440094 20799
STARLINK-36842          
1 67884U 26035F   26178.37425977  .00025651  00000+0  79417-3 0  9996
2 67884  97.2838 111.3702 0001517  87.8980 272.2437 15.33444312 20796
STARLINK-36826          
1 67885U 26035G   26178.36337729  .00035679  00000+0  11015-2 0  9993
2 67885  97.2840 111.3852 0001631  81.2161 278.9266 15.33466623 20794
STARLINK-36390          
1 67886U 26035H   26178.37155230  .00039727  00000+0  12258-2 0  9998
2 67886  97.2830 111.3747 0001725  90.1710 269.9731 15.33459194 20792
STARLINK-36368          
1 67887U 26035J   26178.34163213  .00024638  00000+0  76313-3 0  9994
2 67887  97.2836 111.4182 0001591 108.1147 252.0269 15.33439177 20796
